{
  "features": [
    {
      "geometry": {
        "coordinates": [
          31.3455818,
          30.0642054
        ],
        "type": "Point"
      },
      "id": "('node', 443368255)",
      "properties": {
        "addr:block": null,
        "addr:block:en": null,
        "addr:city": null,
        "addr:country": null,
        "addr:district": null,
        "addr:district:en": null,
        "addr:housenumber": null,
        "addr:neighbourhood": null,
        "addr:neighbourhood:en": null,
        "addr:postcode": null,
        "addr:province": null,
        "addr:province:en": null,
        "addr:street": null,
        "addr:street:en": null,
        "addr:subdistrict": null,
        "addr:subdistrict:en": null,
        "alt_name": null,
        "alt_name:en": null,
        "amenity": "hospital",
        "building": null,
        "data_reality": "REAL_PUBLIC",
        "email": null,
        "emergency": null,
        "facility_type": "hospital",
        "fax": null,
        "fixme": null,
        "freshness_status": "STATIC",
        "healthcare": "hospital",
        "healthcare:speciality": null,
        "internet_access": null,
        "mobile": null,
        "name": "مركز الإيمان الطبي",
        "name:ar": "مركز الإيمان الطبي",
        "name:en": "El Eman Medical Center",
        "name_1": null,
        "note": "correct arabic tag",
        "opening_hours": null,
        "operator": null,
        "operator:type": null,
        "phone": null,
        "website": null,
        "لحجز الزيارات المنزلية": null
      },
      "type": "Feature"
    },
    {
      "geometry": {
        "coordinates": [
          31.3689579,
          30.0672492
        ],
        "type": "Point"
      },
      "id": "('node', 512417734)",
      "properties": {
        "addr:block": null,
        "addr:block:en": null,
        "addr:city": null,
        "addr:country": null,
        "addr:district": null,
        "addr:district:en": null,
        "addr:housenumber": null,
        "addr:neighbourhood": null,
        "addr:neighbourhood:en": null,
        "addr:postcode": null,
        "addr:province": null,
        "addr:province:en": null,
        "addr:street": null,
        "addr:street:en": null,
        "addr:subdistrict": null,
        "addr:subdistrict:en": null,
        "alt_name": null,
        "alt_name:en": null,
        "amenity": "fire_station",
        "building": null,
        "data_reality": "REAL_PUBLIC",
        "email": null,
        "emergency": null,
        "facility_type": "fire_station",
        "fax": null,
        "fixme": null,
        "freshness_status": "STATIC",
        "healthcare": null,
        "healthcare:speciality": null,
        "internet_access": null,
        "mobile": null,
        "name": null,
        "name:ar": null,
        "name:en": null,
        "name_1": null,
        "note": null,
        "opening_hours": null,
        "operator": null,
        "operator:type": null,
        "phone": null,
        "website": null,
        "لحجز الزيارات المنزلية": null
      },
      "type": "Feature"
    },
    {
      "geometry": {
        "coordinates": [
          31.3270141,
          30.062687
        ],
        "type": "Point"
      },
      "id": "('node', 523254716)",
      "properties": {
        "addr:block": null,
        "addr:block:en": null,
        "addr:city": null,
        "addr:country": null,
        "addr:district": null,
        "addr:district:en": null,
        "addr:housenumber": null,
        "addr:neighbourhood": null,
        "addr:neighbourhood:en": null,
        "addr:postcode": null,
        "addr:province": null,
        "addr:province:en": null,
        "addr:street": null,
        "addr:street:en": null,
        "addr:subdistrict": null,
        "addr:subdistrict:en": null,
        "alt_name": null,
        "alt_name:en": null,
        "amenity": "hospital",
        "building": null,
        "data_reality": "REAL_PUBLIC",
        "email": null,
        "emergency": null,
        "facility_type": "hospital",
        "fax": null,
        "fixme": null,
        "freshness_status": "STATIC",
        "healthcare": null,
        "healthcare:speciality": null,
        "internet_access": null,
        "mobile": null,
        "name": null,
        "name:ar": null,
        "name:en": null,
        "name_1": null,
        "note": null,
        "opening_hours": null,
        "operator": null,
        "operator:type": null,
        "phone": null,
        "website": null,
        "لحجز الزيارات المنزلية": null
      },
      "type": "Feature"
    },
    {
      "geometry": {
        "coordinates": [
          31.3317412,
          30.0815072
        ],
        "type": "Point"
      },
      "id": "('node', 678457937)",
      "properties": {
        "addr:block": null,
        "addr:block:en": null,
        "addr:city": null,
        "addr:country": null,
        "addr:district": null,
        "addr:district:en": null,
        "addr:housenumber": null,
        "addr:neighbourhood": null,
        "addr:neighbourhood:en": null,
        "addr:postcode": null,
        "addr:province": null,
        "addr:province:en": null,
        "addr:street": null,
        "addr:street:en": null,
        "addr:subdistrict": null,
        "addr:subdistrict:en": null,
        "alt_name": "الميرغني",
        "alt_name:en": null,
        "amenity": "hospital",
        "building": null,
        "data_reality": "REAL_PUBLIC",
        "email": null,
        "emergency": null,
        "facility_type": "hospital",
        "fax": null,
        "fixme": null,
        "freshness_status": "STATIC",
        "healthcare": "hospital",
        "healthcare:speciality": null,
        "internet_access": null,
        "mobile": null,
        "name": "مستشفى الميرغنى",
        "name:ar": "مستشفى الميرغنى",
        "name:en": "El Merghany hospital",
        "name_1": null,
        "note": null,
        "opening_hours": null,
        "operator": null,
        "operator:type": null,
        "phone": null,
        "website": null,
        "لحجز الزيارات المنزلية": null
      },
      "type": "Feature"
    },
    {
      "geometry": {
        "coordinates": [
          31.3473432,
          30.0637093
        ],
        "type": "Point"
      },
      "id": "('node', 1438270139)",
      "properties": {
        "addr:block": null,
        "addr:block:en": null,
        "addr:city": null,
        "addr:country": null,
        "addr:district": null,
        "addr:district:en": null,
        "addr:housenumber": null,
        "addr:neighbourhood": null,
        "addr:neighbourhood:en": null,
        "addr:postcode": null,
        "addr:province": null,
        "addr:province:en": null,
        "addr:street": null,
        "addr:street:en": null,
        "addr:subdistrict": null,
        "addr:subdistrict:en": null,
        "alt_name": null,
        "alt_name:en": null,
        "amenity": "hospital",
        "building": null,
        "data_reality": "REAL_PUBLIC",
        "email": null,
        "emergency": null,
        "facility_type": "hospital",
        "fax": null,
        "fixme": null,
        "freshness_status": "STATIC",
        "healthcare": "hospital",
        "healthcare:speciality": null,
        "internet_access": null,
        "mobile": null,
        "name": "منظمه الصحه العالمية",
        "name:ar": "منظمه الصحه العالمية",
        "name:en": "World Health Organisation",
        "name_1": null,
        "note": null,
        "opening_hours": null,
        "operator": "World Health organization",
        "operator:type": null,
        "phone": null,
        "website": null,
        "لحجز الزيارات المنزلية": null
      },
      "type": "Feature"
    },
    {
      "geometry": {
        "coordinates": [
          31.3392842,
          30.0464585
        ],
        "type": "Point"
      },
      "id": "('node', 3966612431)",
      "properties": {
        "addr:block": null,
        "addr:block:en": null,
        "addr:city": null,
        "addr:country": null,
        "addr:district": null,
        "addr:district:en": null,
        "addr:housenumber": "52",
        "addr:neighbourhood": null,
        "addr:neighbourhood:en": null,
        "addr:postcode": null,
        "addr:province": null,
        "addr:province:en": null,
        "addr:street": null,
        "addr:street:en": null,
        "addr:subdistrict": null,
        "addr:subdistrict:en": null,
        "alt_name": null,
        "alt_name:en": null,
        "amenity": "clinic",
        "building": null,
        "data_reality": "REAL_PUBLIC",
        "email": null,
        "emergency": null,
        "facility_type": "clinic",
        "fax": null,
        "fixme": null,
        "freshness_status": "STATIC",
        "healthcare": null,
        "healthcare:speciality": null,
        "internet_access": null,
        "mobile": null,
        "name": "عيادة د. احمد العساف",
        "name:ar": "عيادة د. احمد العساف",
        "name:en": null,
        "name_1": null,
        "note": null,
        "opening_hours": null,
        "operator": null,
        "operator:type": null,
        "phone": null,
        "website": null,
        "لحجز الزيارات المنزلية": null
      },
      "type": "Feature"
    },
    {
      "geometry": {
        "coordinates": [
          31.3465042,
          30.0646977
        ],
        "type": "Point"
      },
      "id": "('node', 4362086147)",
      "properties": {
        "addr:block": null,
        "addr:block:en": null,
        "addr:city": null,
        "addr:country": null,
        "addr:district": null,
        "addr:district:en": null,
        "addr:housenumber": null,
        "addr:neighbourhood": null,
        "addr:neighbourhood:en": null,
        "addr:postcode": null,
        "addr:province": null,
        "addr:province:en": null,
        "addr:street": null,
        "addr:street:en": null,
        "addr:subdistrict": null,
        "addr:subdistrict:en": null,
        "alt_name": null,
        "alt_name:en": null,
        "amenity": "hospital",
        "building": null,
        "data_reality": "REAL_PUBLIC",
        "email": null,
        "emergency": null,
        "facility_type": "hospital",
        "fax": null,
        "fixme": null,
        "freshness_status": "STATIC",
        "healthcare": "hospital",
        "healthcare:speciality": null,
        "internet_access": null,
        "mobile": null,
        "name": "مستشفى العاملين بقطاع البترول",
        "name:ar": "مستشفى العاملين بقطاع البترول",
        "name:en": "Petroleum Hospital",
        "name_1": "مستشفى البترول",
        "note": null,
        "opening_hours": null,
        "operator": null,
        "operator:type": null,
        "phone": null,
        "website": null,
        "لحجز الزيارات المنزلية": null
      },
      "type": "Feature"
    },
    {
      "geometry": {
        "coordinates": [
          31.3238183,
          30.0724682
        ],
        "type": "Point"
      },
      "id": "('node', 4469632892)",
      "properties": {
        "addr:block": null,
        "addr:block:en": null,
        "addr:city": null,
        "addr:country": null,
        "addr:district": null,
        "addr:district:en": null,
        "addr:housenumber": "107",
        "addr:neighbourhood": null,
        "addr:neighbourhood:en": null,
        "addr:postcode": "11371",
        "addr:province": null,
        "addr:province:en": null,
        "addr:street": "الطيران",
        "addr:street:en": null,
        "addr:subdistrict": null,
        "addr:subdistrict:en": null,
        "alt_name": null,
        "alt_name:en": null,
        "amenity": "clinic",
        "building": null,
        "data_reality": "REAL_PUBLIC",
        "email": "dr.labib@link.net",
        "emergency": null,
        "facility_type": "clinic",
        "fax": null,
        "fixme": null,
        "freshness_status": "STATIC",
        "healthcare": null,
        "healthcare:speciality": null,
        "internet_access": "wlan",
        "mobile": null,
        "name": "د. ممدوح لبيب",
        "name:ar": "د. ممدوح لبيب",
        "name:en": "Offshore Medical Dr. Labib",
        "name_1": null,
        "note": null,
        "opening_hours": "Su-We 09:00-17:00; Th 09:00-14:00",
        "operator": "Dr. Mamdouh Labib",
        "operator:type": null,
        "phone": "+201222128203",
        "website": "http://www.OffshoreMedical-eg.com",
        "لحجز الزيارات المنزلية": null
      },
      "type": "Feature"
    },
    {
      "geometry": {
        "coordinates": [
          31.3279802,
          30.0536604
        ],
        "type": "Point"
      },
      "id": "('node', 4558229689)",
      "properties": {
        "addr:block": null,
        "addr:block:en": null,
        "addr:city": null,
        "addr:country": null,
        "addr:district": null,
        "addr:district:en": null,
        "addr:housenumber": null,
        "addr:neighbourhood": null,
        "addr:neighbourhood:en": null,
        "addr:postcode": null,
        "addr:province": null,
        "addr:province:en": null,
        "addr:street": null,
        "addr:street:en": null,
        "addr:subdistrict": null,
        "addr:subdistrict:en": null,
        "alt_name": null,
        "alt_name:en": null,
        "amenity": "clinic",
        "building": null,
        "data_reality": "REAL_PUBLIC",
        "email": null,
        "emergency": null,
        "facility_type": "clinic",
        "fax": null,
        "fixme": null,
        "freshness_status": "STATIC",
        "healthcare": null,
        "healthcare:speciality": null,
        "internet_access": null,
        "mobile": null,
        "name": null,
        "name:ar": null,
        "name:en": "fit life - Dr Sameh Mohsen",
        "name_1": null,
        "note": null,
        "opening_hours": null,
        "operator": null,
        "operator:type": null,
        "phone": null,
        "website": null,
        "لحجز الزيارات المنزلية": null
      },
      "type": "Feature"
    },
    {
      "geometry": {
        "coordinates": [
          31.3311456,
          30.0555682
        ],
        "type": "Point"
      },
      "id": "('node', 4561090493)",
      "properties": {
        "addr:block": null,
        "addr:block:en": null,
        "addr:city": null,
        "addr:country": null,
        "addr:district": null,
        "addr:district:en": null,
        "addr:housenumber": null,
        "addr:neighbourhood": null,
        "addr:neighbourhood:en": null,
        "addr:postcode": null,
        "addr:province": null,
        "addr:province:en": null,
        "addr:street": null,
        "addr:street:en": null,
        "addr:subdistrict": null,
        "addr:subdistrict:en": null,
        "alt_name": null,
        "alt_name:en": null,
        "amenity": "hospital",
        "building": null,
        "data_reality": "REAL_PUBLIC",
        "email": null,
        "emergency": null,
        "facility_type": "hospital",
        "fax": null,
        "fixme": null,
        "freshness_status": "STATIC",
        "healthcare": "hospital",
        "healthcare:speciality": null,
        "internet_access": null,
        "mobile": null,
        "name": "مستشفي جمال ابو العزايم",
        "name:ar": "مستشفي جمال ابو العزايم",
        "name:en": null,
        "name_1": null,
        "note": null,
        "opening_hours": null,
        "operator": null,
        "operator:type": null,
        "phone": null,
        "website": null,
        "لحجز الزيارات المنزلية": null
      },
      "type": "Feature"
    },
    {
      "geometry": {
        "coordinates": [
          31.346945,
          30.0648509
        ],
        "type": "Point"
      },
      "id": "('node', 5122232721)",
      "properties": {
        "addr:block": null,
        "addr:block:en": null,
        "addr:city": null,
        "addr:country": null,
        "addr:district": null,
        "addr:district:en": null,
        "addr:housenumber": null,
        "addr:neighbourhood": null,
        "addr:neighbourhood:en": null,
        "addr:postcode": null,
        "addr:province": null,
        "addr:province:en": null,
        "addr:street": null,
        "addr:street:en": null,
        "addr:subdistrict": null,
        "addr:subdistrict:en": null,
        "alt_name": null,
        "alt_name:en": null,
        "amenity": "hospital",
        "building": null,
        "data_reality": "REAL_PUBLIC",
        "email": null,
        "emergency": null,
        "facility_type": "hospital",
        "fax": null,
        "fixme": null,
        "freshness_status": "STATIC",
        "healthcare": "hospital",
        "healthcare:speciality": null,
        "internet_access": null,
        "mobile": null,
        "name": "مستشفى الكبد د يس عبد الغفار الخيرية",
        "name:ar": "مستشفى الكبد د يس عبد الغفار الخيرية",
        "name:en": "Yassin Abdulghaffar Hepatology Center",
        "name_1": null,
        "note": null,
        "opening_hours": null,
        "operator": null,
        "operator:type": null,
        "phone": null,
        "website": null,
        "لحجز الزيارات المنزلية": null
      },
      "type": "Feature"
    },
    {
      "geometry": {
        "coordinates": [
          31.35774,
          30.0561602
        ],
        "type": "Point"
      },
      "id": "('node', 5134665947)",
      "properties": {
        "addr:block": null,
        "addr:block:en": null,
        "addr:city": null,
        "addr:country": null,
        "addr:district": null,
        "addr:district:en": null,
        "addr:housenumber": null,
        "addr:neighbourhood": null,
        "addr:neighbourhood:en": null,
        "addr:postcode": null,
        "addr:province": null,
        "addr:province:en": null,
        "addr:street": null,
        "addr:street:en": null,
        "addr:subdistrict": null,
        "addr:subdistrict:en": null,
        "alt_name": null,
        "alt_name:en": null,
        "amenity": "hospital",
        "building": null,
        "data_reality": "REAL_PUBLIC",
        "email": null,
        "emergency": null,
        "facility_type": "hospital",
        "fax": null,
        "fixme": null,
        "freshness_status": "STATIC",
        "healthcare": null,
        "healthcare:speciality": null,
        "internet_access": null,
        "mobile": null,
        "name": "مركز طبي الحى الثامن",
        "name:ar": "مركز طبي الحى الثامن",
        "name:en": null,
        "name_1": null,
        "note": null,
        "opening_hours": null,
        "operator": null,
        "operator:type": null,
        "phone": null,
        "website": null,
        "لحجز الزيارات المنزلية": null
      },
      "type": "Feature"
    },
    {
      "geometry": {
        "coordinates": [
          31.3603878,
          30.0597161
        ],
        "type": "Point"
      },
      "id": "('node', 5134666024)",
      "properties": {
        "addr:block": null,
        "addr:block:en": null,
        "addr:city": null,
        "addr:country": null,
        "addr:district": null,
        "addr:district:en": null,
        "addr:housenumber": null,
        "addr:neighbourhood": null,
        "addr:neighbourhood:en": null,
        "addr:postcode": null,
        "addr:province": null,
        "addr:province:en": null,
        "addr:street": null,
        "addr:street:en": null,
        "addr:subdistrict": null,
        "addr:subdistrict:en": null,
        "alt_name": null,
        "alt_name:en": null,
        "amenity": "hospital",
        "building": null,
        "data_reality": "REAL_PUBLIC",
        "email": null,
        "emergency": null,
        "facility_type": "hospital",
        "fax": null,
        "fixme": null,
        "freshness_status": "STATIC",
        "healthcare": null,
        "healthcare:speciality": null,
        "internet_access": null,
        "mobile": null,
        "name": "ايجيكير",
        "name:ar": "ايجيكير",
        "name:en": null,
        "name_1": null,
        "note": null,
        "opening_hours": null,
        "operator": null,
        "operator:type": null,
        "phone": null,
        "website": null,
        "لحجز الزيارات المنزلية": null
      },
      "type": "Feature"
    },
    {
      "geometry": {
        "coordinates": [
          31.3576391,
          30.0553351
        ],
        "type": "Point"
      },
      "id": "('node', 5134666532)",
      "properties": {
        "addr:block": null,
        "addr:block:en": null,
        "addr:city": null,
        "addr:country": null,
        "addr:district": null,
        "addr:district:en": null,
        "addr:housenumber": null,
        "addr:neighbourhood": null,
        "addr:neighbourhood:en": null,
        "addr:postcode": null,
        "addr:province": null,
        "addr:province:en": null,
        "addr:street": null,
        "addr:street:en": null,
        "addr:subdistrict": null,
        "addr:subdistrict:en": null,
        "alt_name": null,
        "alt_name:en": null,
        "amenity": "hospital",
        "building": null,
        "data_reality": "REAL_PUBLIC",
        "email": null,
        "emergency": null,
        "facility_type": "hospital",
        "fax": null,
        "fixme": null,
        "freshness_status": "STATIC",
        "healthcare": null,
        "healthcare:speciality": null,
        "internet_access": null,
        "mobile": null,
        "name": "مركز طبي الحى الثامن",
        "name:ar": "مركز طبي الحى الثامن",
        "name:en": null,
        "name_1": null,
        "note": null,
        "opening_hours": null,
        "operator": null,
        "operator:type": null,
        "phone": null,
        "website": null,
        "لحجز الزيارات المنزلية": null
      },
      "type": "Feature"
    },
    {
      "geometry": {
        "coordinates": [
          31.3372636,
          30.0790385
        ],
        "type": "Point"
      },
      "id": "('node', 5383243322)",
      "properties": {
        "addr:block": null,
        "addr:block:en": null,
        "addr:city": null,
        "addr:country": null,
        "addr:district": null,
        "addr:district:en": null,
        "addr:housenumber": null,
        "addr:neighbourhood": null,
        "addr:neighbourhood:en": null,
        "addr:postcode": null,
        "addr:province": null,
        "addr:province:en": null,
        "addr:street": null,
        "addr:street:en": null,
        "addr:subdistrict": null,
        "addr:subdistrict:en": null,
        "alt_name": null,
        "alt_name:en": null,
        "amenity": "clinic",
        "building": null,
        "data_reality": "REAL_PUBLIC",
        "email": null,
        "emergency": null,
        "facility_type": "clinic",
        "fax": null,
        "fixme": null,
        "freshness_status": "STATIC",
        "healthcare": null,
        "healthcare:speciality": null,
        "internet_access": null,
        "mobile": null,
        "name": "الجولف ميموريال",
        "name:ar": "الجولف ميموريال",
        "name:en": "Golf Memorial Hospital",
        "name_1": null,
        "note": null,
        "opening_hours": null,
        "operator": null,
        "operator:type": null,
        "phone": null,
        "website": null,
        "لحجز الزيارات المنزلية": null
      },
      "type": "Feature"
    },
    {
      "geometry": {
        "coordinates": [
          31.3372837,
          30.0790241
        ],
        "type": "Point"
      },
      "id": "('node', 5383244422)",
      "properties": {
        "addr:block": null,
        "addr:block:en": null,
        "addr:city": null,
        "addr:country": null,
        "addr:district": null,
        "addr:district:en": null,
        "addr:housenumber": null,
        "addr:neighbourhood": null,
        "addr:neighbourhood:en": null,
        "addr:postcode": null,
        "addr:province": null,
        "addr:province:en": null,
        "addr:street": null,
        "addr:street:en": null,
        "addr:subdistrict": null,
        "addr:subdistrict:en": null,
        "alt_name": null,
        "alt_name:en": null,
        "amenity": "hospital",
        "building": null,
        "data_reality": "REAL_PUBLIC",
        "email": null,
        "emergency": null,
        "facility_type": "hospital",
        "fax": null,
        "fixme": null,
        "freshness_status": "STATIC",
        "healthcare": null,
        "healthcare:speciality": null,
        "internet_access": null,
        "mobile": null,
        "name": null,
        "name:ar": null,
        "name:en": "Golf Memorial Hospital",
        "name_1": null,
        "note": null,
        "opening_hours": null,
        "operator": null,
        "operator:type": null,
        "phone": null,
        "website": null,
        "لحجز الزيارات المنزلية": null
      },
      "type": "Feature"
    },
    {
      "geometry": {
        "coordinates": [
          31.3286219,
          30.0508411
        ],
        "type": "Point"
      },
      "id": "('node', 6548637385)",
      "properties": {
        "addr:block": null,
        "addr:block:en": null,
        "addr:city": null,
        "addr:country": null,
        "addr:district": null,
        "addr:district:en": null,
        "addr:housenumber": null,
        "addr:neighbourhood": null,
        "addr:neighbourhood:en": null,
        "addr:postcode": null,
        "addr:province": null,
        "addr:province:en": null,
        "addr:street": "الرازى",
        "addr:street:en": null,
        "addr:subdistrict": null,
        "addr:subdistrict:en": null,
        "alt_name": null,
        "alt_name:en": null,
        "amenity": "clinic",
        "building": null,
        "data_reality": "REAL_PUBLIC",
        "email": null,
        "emergency": null,
        "facility_type": "clinic",
        "fax": null,
        "fixme": null,
        "freshness_status": "STATIC",
        "healthcare": null,
        "healthcare:speciality": null,
        "internet_access": "wlan",
        "mobile": null,
        "name": "مركز نيروكير",
        "name:ar": "مركز نيروكير",
        "name:en": "Neurocare",
        "name_1": null,
        "note": null,
        "opening_hours": null,
        "operator": null,
        "operator:type": null,
        "phone": null,
        "website": null,
        "لحجز الزيارات المنزلية": null
      },
      "type": "Feature"
    },
    {
      "geometry": {
        "coordinates": [
          31.3593619,
          30.0570773
        ],
        "type": "Point"
      },
      "id": "('node', 6572682177)",
      "properties": {
        "addr:block": null,
        "addr:block:en": null,
        "addr:city": null,
        "addr:country": "EG",
        "addr:district": "اول مدينة نصر",
        "addr:district:en": "First Nasr City",
        "addr:housenumber": "27",
        "addr:neighbourhood": "مساكن بنك الاسكان والتعمير",
        "addr:neighbourhood:en": "Housing And Development Bank Housing",
        "addr:postcode": "11765",
        "addr:province": "القاهرة",
        "addr:province:en": "Cairo",
        "addr:street": "شارع الشهيد محمد مصطفى كاريكا",
        "addr:street:en": "Al Shahid Mohamed Moustafa Karika Street",
        "addr:subdistrict": "شرق منطقة 6",
        "addr:subdistrict:en": "East Area 6",
        "alt_name": null,
        "alt_name:en": null,
        "amenity": "doctors",
        "building": null,
        "data_reality": "REAL_PUBLIC",
        "email": null,
        "emergency": null,
        "facility_type": "doctors",
        "fax": null,
        "fixme": null,
        "freshness_status": "STATIC",
        "healthcare": "doctor",
        "healthcare:speciality": "neurology",
        "internet_access": null,
        "mobile": null,
        "name": "دكتور أبو الفرج مصطفى الريس",
        "name:ar": null,
        "name:en": null,
        "name_1": null,
        "note": null,
        "opening_hours": "Sa-Su-Wed 06:00-11:00",
        "operator": null,
        "operator:type": null,
        "phone": null,
        "website": null,
        "لحجز الزيارات المنزلية": null
      },
      "type": "Feature"
    },
    {
      "geometry": {
        "coordinates": [
          31.3322762,
          30.0841935
        ],
        "type": "Point"
      },
      "id": "('node', 6960720685)",
      "properties": {
        "addr:block": null,
        "addr:block:en": null,
        "addr:city": null,
        "addr:country": null,
        "addr:district": null,
        "addr:district:en": null,
        "addr:housenumber": null,
        "addr:neighbourhood": null,
        "addr:neighbourhood:en": null,
        "addr:postcode": null,
        "addr:province": null,
        "addr:province:en": null,
        "addr:street": null,
        "addr:street:en": null,
        "addr:subdistrict": null,
        "addr:subdistrict:en": null,
        "alt_name": null,
        "alt_name:en": null,
        "amenity": "doctors",
        "building": null,
        "data_reality": "REAL_PUBLIC",
        "email": null,
        "emergency": null,
        "facility_type": "doctors",
        "fax": null,
        "fixme": null,
        "freshness_status": "STATIC",
        "healthcare": null,
        "healthcare:speciality": null,
        "internet_access": null,
        "mobile": null,
        "name": "مستشفى الابتسامة التخصصي.",
        "name:ar": "مستشفى الابتسامة التخصصي.",
        "name:en": null,
        "name_1": null,
        "note": null,
        "opening_hours": null,
        "operator": null,
        "operator:type": null,
        "phone": null,
        "website": null,
        "لحجز الزيارات المنزلية": null
      },
      "type": "Feature"
    },
    {
      "geometry": {
        "coordinates": [
          31.3417916,
          30.0798217
        ],
        "type": "Point"
      },
      "id": "('node', 7266633050)",
      "properties": {
        "addr:block": null,
        "addr:block:en": null,
        "addr:city": null,
        "addr:country": null,
        "addr:district": null,
        "addr:district:en": null,
        "addr:housenumber": null,
        "addr:neighbourhood": null,
        "addr:neighbourhood:en": null,
        "addr:postcode": null,
        "addr:province": null,
        "addr:province:en": null,
        "addr:street": null,
        "addr:street:en": null,
        "addr:subdistrict": null,
        "addr:subdistrict:en": null,
        "alt_name": null,
        "alt_name:en": null,
        "amenity": "clinic",
        "building": null,
        "data_reality": "REAL_PUBLIC",
        "email": null,
        "emergency": null,
        "facility_type": "clinic",
        "fax": null,
        "fixme": null,
        "freshness_status": "STATIC",
        "healthcare": "clinic",
        "healthcare:speciality": null,
        "internet_access": null,
        "mobile": null,
        "name": "دكتورة جميلة محمد نصر، القلب و الأوعية الدموية",
        "name:ar": "دكتورة جميلة محمد نصر، القلب و الأوعية الدموية",
        "name:en": "Gamila Mohamed Nasr ,Cardiology",
        "name_1": null,
        "note": null,
        "opening_hours": "Mo-We, Sa 19:00-21:00",
        "operator": null,
        "operator:type": null,
        "phone": "24180293",
        "website": null,
        "لحجز الزيارات المنزلية": null
      },
      "type": "Feature"
    },
    {
      "geometry": {
        "coordinates": [
          31.339633,
          30.0754592
        ],
        "type": "Point"
      },
      "id": "('node', 7973148688)",
      "properties": {
        "addr:block": null,
        "addr:block:en": null,
        "addr:city": "القاهرة",
        "addr:country": null,
        "addr:district": null,
        "addr:district:en": null,
        "addr:housenumber": "6",
        "addr:neighbourhood": null,
        "addr:neighbourhood:en": null,
        "addr:postcode": "11765",
        "addr:province": null,
        "addr:province:en": null,
        "addr:street": "شارع النزهه",
        "addr:street:en": null,
        "addr:subdistrict": null,
        "addr:subdistrict:en": null,
        "alt_name": null,
        "alt_name:en": null,
        "amenity": "clinic",
        "building": null,
        "data_reality": "REAL_PUBLIC",
        "email": null,
        "emergency": null,
        "facility_type": "clinic",
        "fax": null,
        "fixme": null,
        "freshness_status": "STATIC",
        "healthcare": "clinic",
        "healthcare:speciality": null,
        "internet_access": null,
        "mobile": null,
        "name": "عيادات سيمويا الايطالية للتجميل SIMOE Italian Beauty Clinics",
        "name:ar": "عيادات سيمويا الايطالية للتجميل SIMOE Italian Beauty Clinics",
        "name:en": null,
        "name_1": null,
        "note": null,
        "opening_hours": null,
        "operator": null,
        "operator:type": null,
        "phone": null,
        "website": null,
        "لحجز الزيارات المنزلية": null
      },
      "type": "Feature"
    },
    {
      "geometry": {
        "coordinates": [
          31.352549,
          30.0556972
        ],
        "type": "Point"
      },
      "id": "('node', 9165743652)",
      "properties": {
        "addr:block": null,
        "addr:block:en": null,
        "addr:city": null,
        "addr:country": null,
        "addr:district": null,
        "addr:district:en": null,
        "addr:housenumber": null,
        "addr:neighbourhood": null,
        "addr:neighbourhood:en": null,
        "addr:postcode": null,
        "addr:province": null,
        "addr:province:en": null,
        "addr:street": null,
        "addr:street:en": null,
        "addr:subdistrict": null,
        "addr:subdistrict:en": null,
        "alt_name": null,
        "alt_name:en": null,
        "amenity": "clinic",
        "building": null,
        "data_reality": "REAL_PUBLIC",
        "email": null,
        "emergency": null,
        "facility_type": "clinic",
        "fax": null,
        "fixme": null,
        "freshness_status": "STATIC",
        "healthcare": null,
        "healthcare:speciality": "orthopaedics",
        "internet_access": null,
        "mobile": null,
        "name": "د. ملك نادر",
        "name:ar": "د. ملك نادر",
        "name:en": "Dr. Malak Nader",
        "name_1": null,
        "note": null,
        "opening_hours": null,
        "operator": null,
        "operator:type": null,
        "phone": null,
        "website": null,
        "لحجز الزيارات المنزلية": null
      },
      "type": "Feature"
    },
    {
      "geometry": {
        "coordinates": [
          31.332632,
          30.0807161
        ],
        "type": "Point"
      },
      "id": "('node', 10280525304)",
      "properties": {
        "addr:block": null,
        "addr:block:en": null,
        "addr:city": null,
        "addr:country": null,
        "addr:district": null,
        "addr:district:en": null,
        "addr:housenumber": null,
        "addr:neighbourhood": null,
        "addr:neighbourhood:en": null,
        "addr:postcode": null,
        "addr:province": null,
        "addr:province:en": null,
        "addr:street": null,
        "addr:street:en": null,
        "addr:subdistrict": null,
        "addr:subdistrict:en": null,
        "alt_name": null,
        "alt_name:en": null,
        "amenity": "hospital",
        "building": null,
        "data_reality": "REAL_PUBLIC",
        "email": null,
        "emergency": null,
        "facility_type": "hospital",
        "fax": null,
        "fixme": null,
        "freshness_status": "STATIC",
        "healthcare": "hospital",
        "healthcare:speciality": null,
        "internet_access": null,
        "mobile": null,
        "name": "مركز الدرة التخصصي للعيون",
        "name:ar": null,
        "name:en": "Durrah Eye Center",
        "name_1": null,
        "note": null,
        "opening_hours": null,
        "operator": "مركز الدرة التخصصي للعيون",
        "operator:type": "private",
        "phone": null,
        "website": null,
        "لحجز الزيارات المنزلية": null
      },
      "type": "Feature"
    },
    {
      "geometry": {
        "coordinates": [
          31.344548,
          30.0546825
        ],
        "type": "Point"
      },
      "id": "('node', 11119511505)",
      "properties": {
        "addr:block": null,
        "addr:block:en": null,
        "addr:city": null,
        "addr:country": null,
        "addr:district": null,
        "addr:district:en": null,
        "addr:housenumber": "46",
        "addr:neighbourhood": null,
        "addr:neighbourhood:en": null,
        "addr:postcode": null,
        "addr:province": null,
        "addr:province:en": null,
        "addr:street": "شارع مصطفي النحاس",
        "addr:street:en": null,
        "addr:subdistrict": null,
        "addr:subdistrict:en": null,
        "alt_name": null,
        "alt_name:en": null,
        "amenity": "doctors",
        "building": null,
        "data_reality": "REAL_PUBLIC",
        "email": null,
        "emergency": null,
        "facility_type": "doctors",
        "fax": null,
        "fixme": null,
        "freshness_status": "STATIC",
        "healthcare": null,
        "healthcare:speciality": null,
        "internet_access": null,
        "mobile": null,
        "name": null,
        "name:ar": null,
        "name:en": "Platinum Dental Center",
        "name_1": null,
        "note": null,
        "opening_hours": null,
        "operator": null,
        "operator:type": null,
        "phone": null,
        "website": null,
        "لحجز الزيارات المنزلية": null
      },
      "type": "Feature"
    },
    {
      "geometry": {
        "coordinates": [
          31.3465126,
          30.0551955
        ],
        "type": "Point"
      },
      "id": "('node', 11216238083)",
      "properties": {
        "addr:block": null,
        "addr:block:en": null,
        "addr:city": null,
        "addr:country": null,
        "addr:district": null,
        "addr:district:en": null,
        "addr:housenumber": null,
        "addr:neighbourhood": null,
        "addr:neighbourhood:en": null,
        "addr:postcode": null,
        "addr:province": null,
        "addr:province:en": null,
        "addr:street": null,
        "addr:street:en": null,
        "addr:subdistrict": null,
        "addr:subdistrict:en": null,
        "alt_name": null,
        "alt_name:en": null,
        "amenity": "clinic",
        "building": null,
        "data_reality": "REAL_PUBLIC",
        "email": null,
        "emergency": null,
        "facility_type": "clinic",
        "fax": null,
        "fixme": null,
        "freshness_status": "STATIC",
        "healthcare": "clinic",
        "healthcare:speciality": null,
        "internet_access": null,
        "mobile": null,
        "name": "Honesta Clinic",
        "name:ar": null,
        "name:en": null,
        "name_1": null,
        "note": null,
        "opening_hours": null,
        "operator": null,
        "operator:type": null,
        "phone": null,
        "website": null,
        "لحجز الزيارات المنزلية": null
      },
      "type": "Feature"
    },
    {
      "geometry": {
        "coordinates": [
          31.3444783,
          30.0784848
        ],
        "type": "Point"
      },
      "id": "('node', 12895489801)",
      "properties": {
        "addr:block": null,
        "addr:block:en": null,
        "addr:city": null,
        "addr:country": null,
        "addr:district": null,
        "addr:district:en": null,
        "addr:housenumber": null,
        "addr:neighbourhood": null,
        "addr:neighbourhood:en": null,
        "addr:postcode": null,
        "addr:province": null,
        "addr:province:en": null,
        "addr:street": "شارع حسن افلاطون",
        "addr:street:en": null,
        "addr:subdistrict": null,
        "addr:subdistrict:en": null,
        "alt_name": null,
        "alt_name:en": null,
        "amenity": "hospital",
        "building": null,
        "data_reality": "REAL_PUBLIC",
        "email": null,
        "emergency": null,
        "facility_type": "hospital",
        "fax": null,
        "fixme": null,
        "freshness_status": "STATIC",
        "healthcare": null,
        "healthcare:speciality": null,
        "internet_access": null,
        "mobile": null,
        "name": "مستشفى عبدالقادر فهمي",
        "name:ar": null,
        "name:en": "Abd Al-Kader Fahmy hospital",
        "name_1": null,
        "note": null,
        "opening_hours": null,
        "operator": null,
        "operator:type": null,
        "phone": null,
        "website": null,
        "لحجز الزيارات المنزلية": null
      },
      "type": "Feature"
    },
    {
      "geometry": {
        "coordinates": [
          [
            [
              31.3339784,
              30.0668375
            ],
            [
              31.3341497,
              30.0668549
            ],
            [
              31.3341817,
              30.0666188
            ],
            [
              31.3340104,
              30.0666014
            ],
            [
              31.3339784,
              30.0668375
            ]
          ]
        ],
        "type": "Polygon"
      },
      "id": "('way', 31820663)",
      "properties": {
        "addr:block": null,
        "addr:block:en": null,
        "addr:city": null,
        "addr:country": "EG",
        "addr:district": "اول مدينة نصر",
        "addr:district:en": "First Nasr City",
        "addr:housenumber": "24",
        "addr:neighbourhood": null,
        "addr:neighbourhood:en": null,
        "addr:postcode": "11765",
        "addr:province": "القاهرة",
        "addr:province:en": "Cairo",
        "addr:street": "شارع الدكتور انور المفتي",
        "addr:street:en": "Al Doctor Anwar Al Mofty Street",
        "addr:subdistrict": "منطقة 1",
        "addr:subdistrict:en": "Area 1",
        "alt_name": null,
        "alt_name:en": null,
        "amenity": "hospital",
        "building": "yes",
        "data_reality": "REAL_PUBLIC",
        "email": null,
        "emergency": null,
        "facility_type": "hospital",
        "fax": null,
        "fixme": null,
        "freshness_status": "STATIC",
        "healthcare": "hospital",
        "healthcare:speciality": null,
        "internet_access": null,
        "mobile": null,
        "name": "مستشفى تبارك للولادة والأطفال",
        "name:ar": "مستشفى تبارك للولادة والأطفال",
        "name:en": "Tabarak for Children",
        "name_1": null,
        "note": null,
        "opening_hours": null,
        "operator": null,
        "operator:type": null,
        "phone": null,
        "website": null,
        "لحجز الزيارات المنزلية": null
      },
      "type": "Feature"
    },
    {
      "geometry": {
        "coordinates": [
          [
            [
              31.3462907,
              30.0647333
            ],
            [
              31.3463281,
              30.0644915
            ],
            [
              31.3467481,
              30.0645402
            ],
            [
              31.3467107,
              30.064782
            ],
            [
              31.3462907,
              30.0647333
            ]
          ]
        ],
        "type": "Polygon"
      },
      "id": "('way', 32694180)",
      "properties": {
        "addr:block": null,
        "addr:block:en": null,
        "addr:city": null,
        "addr:country": null,
        "addr:district": null,
        "addr:district:en": null,
        "addr:housenumber": null,
        "addr:neighbourhood": null,
        "addr:neighbourhood:en": null,
        "addr:postcode": null,
        "addr:province": null,
        "addr:province:en": null,
        "addr:street": null,
        "addr:street:en": null,
        "addr:subdistrict": null,
        "addr:subdistrict:en": null,
        "alt_name": null,
        "alt_name:en": null,
        "amenity": "hospital",
        "building": null,
        "data_reality": "REAL_PUBLIC",
        "email": null,
        "emergency": null,
        "facility_type": "hospital",
        "fax": null,
        "fixme": null,
        "freshness_status": "STATIC",
        "healthcare": "hospital",
        "healthcare:speciality": null,
        "internet_access": null,
        "mobile": null,
        "name": "مستشفى العاملين بقطاع البترول",
        "name:ar": "مستشفى العاملين بقطاع البترول",
        "name:en": "Petrolium Hospital",
        "name_1": null,
        "note": null,
        "opening_hours": null,
        "operator": null,
        "operator:type": null,
        "phone": null,
        "website": null,
        "لحجز الزيارات المنزلية": null
      },
      "type": "Feature"
    },
    {
      "geometry": {
        "coordinates": [
          [
            [
              31.3464132,
              30.0644661
            ],
            [
              31.3464522,
              30.0641797
            ],
            [
              31.347072,
              30.0642429
            ],
            [
              31.3469948,
              30.0648107
            ],
            [
              31.3467558,
              30.0647863
            ],
            [
              31.3467941,
              30.0645049
            ],
            [
              31.3464132,
              30.0644661
            ]
          ]
        ],
        "type": "Polygon"
      },
      "id": "('way', 32694193)",
      "properties": {
        "addr:block": null,
        "addr:block:en": null,
        "addr:city": null,
        "addr:country": null,
        "addr:district": null,
        "addr:district:en": null,
        "addr:housenumber": null,
        "addr:neighbourhood": null,
        "addr:neighbourhood:en": null,
        "addr:postcode": null,
        "addr:province": null,
        "addr:province:en": null,
        "addr:street": null,
        "addr:street:en": null,
        "addr:subdistrict": null,
        "addr:subdistrict:en": null,
        "alt_name": null,
        "alt_name:en": null,
        "amenity": "hospital",
        "building": null,
        "data_reality": "REAL_PUBLIC",
        "email": null,
        "emergency": null,
        "facility_type": "hospital",
        "fax": null,
        "fixme": null,
        "freshness_status": "STATIC",
        "healthcare": "hospital",
        "healthcare:speciality": null,
        "internet_access": null,
        "mobile": null,
        "name": "د. يس غبد الغقار لأمراض الكبد",
        "name:ar": "مركز د. ياسين عبد الغفار",
        "name:en": "Dr. Yassin Abdel Ghafar for kidney",
        "name_1": null,
        "note": null,
        "opening_hours": null,
        "operator": null,
        "operator:type": null,
        "phone": null,
        "website": null,
        "لحجز الزيارات المنزلية": null
      },
      "type": "Feature"
    },
    {
      "geometry": {
        "coordinates": [
          [
            [
              31.3490063,
              30.0681947
            ],
            [
              31.3490085,
              30.0681718
            ],
            [
              31.349022,
              30.0680302
            ],
            [
              31.3493144,
              30.0680525
            ],
            [
              31.3492939,
              30.0682258
            ],
            [
              31.3490063,
              30.0681947
            ]
          ]
        ],
        "type": "Polygon"
      },
      "id": "('way', 37789099)",
      "properties": {
        "addr:block": null,
        "addr:block:en": null,
        "addr:city": "cairo",
        "addr:country": null,
        "addr:district": null,
        "addr:district:en": null,
        "addr:housenumber": "6",
        "addr:neighbourhood": null,
        "addr:neighbourhood:en": null,
        "addr:postcode": null,
        "addr:province": null,
        "addr:province:en": null,
        "addr:street": "Ahmed Fakhry, Al Manteqah as Sadesah, Nasr City, Cairo Governorate",
        "addr:street:en": null,
        "addr:subdistrict": null,
        "addr:subdistrict:en": null,
        "alt_name": null,
        "alt_name:en": null,
        "amenity": "hospital",
        "building": "yes",
        "data_reality": "REAL_PUBLIC",
        "email": "hassabo@hih.com.eg",
        "emergency": "yes",
        "facility_type": "hospital",
        "fax": null,
        "fixme": null,
        "freshness_status": "STATIC",
        "healthcare": "hospital",
        "healthcare:speciality": null,
        "internet_access": null,
        "mobile": null,
        "name": "حسبو الدولي",
        "name:ar": "حسبو الدولي",
        "name:en": "Hasabo International",
        "name_1": null,
        "note": null,
        "opening_hours": null,
        "operator": null,
        "operator:type": null,
        "phone": null,
        "website": null,
        "لحجز الزيارات المنزلية": null
      },
      "type": "Feature"
    },
    {
      "geometry": {
        "coordinates": [
          [
            [
              31.3262107,
              30.0666451
            ],
            [
              31.3260364,
              30.0666267
            ],
            [
              31.3257539,
              30.066569
            ],
            [
              31.3256026,
              30.0664507
            ],
            [
              31.3254749,
              30.0663425
            ],
            [
              31.3254067,
              30.0662728
            ],
            [
              31.32541,
              30.0662626
            ],
            [
              31.3254853,
              30.0662705
            ],
            [
              31.3254909,
              30.066226
            ],
            [
              31.3259985,
              30.0662774
            ],
            [
              31.326265,
              30.0663032
            ],
            [
              31.3263109,
              30.0663078
            ],
            [
              31.3264155,
              30.0663182
            ],
            [
              31.3264624,
              30.0663228
            ],
            [
              31.3264577,
              30.0663674
            ],
            [
              31.3266859,
              30.0663887
            ],
            [
              31.326676,
              30.0664677
            ],
            [
              31.3266602,
              30.0664662
            ],
            [
              31.3266408,
              30.066622
            ],
            [
              31.3264374,
              30.066603
            ],
            [
              31.3264074,
              30.0668441
            ],
            [
              31.3262956,
              30.0668345
            ],
            [
              31.3261341,
              30.0668209
            ],
            [
              31.3260713,
              30.0667876
            ],
            [
              31.3262107,
              30.0666451
            ]
          ]
        ],
        "type": "Polygon"
      },
      "id": "('way', 38071251)",
      "properties": {
        "addr:block": null,
        "addr:block:en": null,
        "addr:city": null,
        "addr:country": null,
        "addr:district": null,
        "addr:district:en": null,
        "addr:housenumber": null,
        "addr:neighbourhood": null,
        "addr:neighbourhood:en": null,
        "addr:postcode": null,
        "addr:province": null,
        "addr:province:en": null,
        "addr:street": null,
        "addr:street:en": null,
        "addr:subdistrict": null,
        "addr:subdistrict:en": null,
        "alt_name": "مستشفى رابعة العدوية",
        "alt_name:en": "Rabaa Al Adaweya Hospital",
        "amenity": "hospital",
        "building": null,
        "data_reality": "REAL_PUBLIC",
        "email": null,
        "emergency": "yes",
        "facility_type": "hospital",
        "fax": null,
        "fixme": null,
        "freshness_status": "STATIC",
        "healthcare": "hospital",
        "healthcare:speciality": null,
        "internet_access": null,
        "mobile": null,
        "name": "مستشفى مدينة نصر التخصصى",
        "name:ar": "مستشفى مدينة نصر التخصصى",
        "name:en": "Nasr City Specialized Hospital",
        "name_1": null,
        "note": null,
        "opening_hours": null,
        "operator": null,
        "operator:type": null,
        "phone": null,
        "website": null,
        "لحجز الزيارات المنزلية": null
      },
      "type": "Feature"
    },
    {
      "geometry": {
        "coordinates": [
          [
            [
              31.3475051,
              30.0603278
            ],
            [
              31.3475351,
              30.060086
            ],
            [
              31.3477303,
              30.0601042
            ],
            [
              31.3477003,
              30.060346
            ],
            [
              31.3475051,
              30.0603278
            ]
          ]
        ],
        "type": "Polygon"
      },
      "id": "('way', 40580280)",
      "properties": {
        "addr:block": null,
        "addr:block:en": null,
        "addr:city": null,
        "addr:country": "EG",
        "addr:district": "اول مدينة نصر",
        "addr:district:en": "First Nasr City",
        "addr:housenumber": "15",
        "addr:neighbourhood": null,
        "addr:neighbourhood:en": null,
        "addr:postcode": "11765",
        "addr:province": "القاهرة",
        "addr:province:en": "Cairo",
        "addr:street": "شارع ابو داوود الظاهري",
        "addr:street:en": "Abou Dawoud Al Zahery Street",
        "addr:subdistrict": "منطقة 6",
        "addr:subdistrict:en": "Area 6",
        "alt_name": null,
        "alt_name:en": null,
        "amenity": "doctors",
        "building": "yes",
        "data_reality": "REAL_PUBLIC",
        "email": null,
        "emergency": null,
        "facility_type": "doctors",
        "fax": null,
        "fixme": null,
        "freshness_status": "STATIC",
        "healthcare": "doctor",
        "healthcare:speciality": null,
        "internet_access": null,
        "mobile": null,
        "name": "Ahmed Mostafa Mahboub",
        "name:ar": null,
        "name:en": null,
        "name_1": null,
        "note": null,
        "opening_hours": null,
        "operator": null,
        "operator:type": null,
        "phone": null,
        "website": null,
        "لحجز الزيارات المنزلية": null
      },
      "type": "Feature"
    },
    {
      "geometry": {
        "coordinates": [
          [
            [
              31.3314985,
              30.0602607
            ],
            [
              31.3314732,
              30.0604595
            ],
            [
              31.3318929,
              30.0604995
            ],
            [
              31.3319182,
              30.0603007
            ],
            [
              31.3314985,
              30.0602607
            ]
          ]
        ],
        "type": "Polygon"
      },
      "id": "('way', 51799433)",
      "properties": {
        "addr:block": null,
        "addr:block:en": null,
        "addr:city": null,
        "addr:country": null,
        "addr:district": null,
        "addr:district:en": null,
        "addr:housenumber": null,
        "addr:neighbourhood": null,
        "addr:neighbourhood:en": null,
        "addr:postcode": null,
        "addr:province": null,
        "addr:province:en": null,
        "addr:street": null,
        "addr:street:en": null,
        "addr:subdistrict": null,
        "addr:subdistrict:en": null,
        "alt_name": null,
        "alt_name:en": null,
        "amenity": "hospital",
        "building": "yes",
        "data_reality": "REAL_PUBLIC",
        "email": null,
        "emergency": null,
        "facility_type": "hospital",
        "fax": null,
        "fixme": null,
        "freshness_status": "STATIC",
        "healthcare": "hospital",
        "healthcare:speciality": null,
        "internet_access": null,
        "mobile": null,
        "name": "الزهراء",
        "name:ar": "الزهراء",
        "name:en": "El-Zahraa",
        "name_1": null,
        "note": null,
        "opening_hours": null,
        "operator": null,
        "operator:type": null,
        "phone": null,
        "website": null,
        "لحجز الزيارات المنزلية": null
      },
      "type": "Feature"
    },
    {
      "geometry": {
        "coordinates": [
          [
            [
              31.3379109,
              30.0659486
            ],
            [
              31.3379377,
              30.0657368
            ],
            [
              31.3379518,
              30.0657217
            ],
            [
              31.3379759,
              30.0657107
            ],
            [
              31.3381912,
              30.0657304
            ],
            [
              31.3381563,
              30.0659765
            ],
            [
              31.3379109,
              30.0659486
            ]
          ]
        ],
        "type": "Polygon"
      },
      "id": "('way', 59622137)",
      "properties": {
        "addr:block": null,
        "addr:block:en": null,
        "addr:city": null,
        "addr:country": null,
        "addr:district": null,
        "addr:district:en": null,
        "addr:housenumber": "10",
        "addr:neighbourhood": null,
        "addr:neighbourhood:en": null,
        "addr:postcode": null,
        "addr:province": null,
        "addr:province:en": null,
        "addr:street": "حسنين هيكل",
        "addr:street:en": null,
        "addr:subdistrict": null,
        "addr:subdistrict:en": null,
        "alt_name": null,
        "alt_name:en": null,
        "amenity": "hospital",
        "building": "yes",
        "data_reality": "REAL_PUBLIC",
        "email": null,
        "emergency": null,
        "facility_type": "hospital",
        "fax": null,
        "fixme": null,
        "freshness_status": "STATIC",
        "healthcare": "hospital",
        "healthcare:speciality": null,
        "internet_access": null,
        "mobile": null,
        "name": "مستشفي دار الحكمة",
        "name:ar": "مستشفي دار الحكمة",
        "name:en": "Dar Al-Hekma Hospital",
        "name_1": null,
        "note": null,
        "opening_hours": null,
        "operator": null,
        "operator:type": null,
        "phone": null,
        "website": "http://www.daralhekma-hospital.com/",
        "لحجز الزيارات المنزلية": null
      },
      "type": "Feature"
    },
    {
      "geometry": {
        "coordinates": [
          [
            [
              31.3358996,
              30.0838317
            ],
            [
              31.3357908,
              30.0836543
            ],
            [
              31.3359625,
              30.0835706
            ],
            [
              31.3360762,
              30.0837478
            ],
            [
              31.3358996,
              30.0838317
            ]
          ]
        ],
        "type": "Polygon"
      },
      "id": "('way', 81564324)",
      "properties": {
        "addr:block": null,
        "addr:block:en": null,
        "addr:city": null,
        "addr:country": null,
        "addr:district": null,
        "addr:district:en": null,
        "addr:housenumber": null,
        "addr:neighbourhood": null,
        "addr:neighbourhood:en": null,
        "addr:postcode": null,
        "addr:province": null,
        "addr:province:en": null,
        "addr:street": null,
        "addr:street:en": null,
        "addr:subdistrict": null,
        "addr:subdistrict:en": null,
        "alt_name": null,
        "alt_name:en": null,
        "amenity": "hospital",
        "building": null,
        "data_reality": "REAL_PUBLIC",
        "email": null,
        "emergency": "yes",
        "facility_type": "hospital",
        "fax": null,
        "fixme": null,
        "freshness_status": "STATIC",
        "healthcare": null,
        "healthcare:speciality": null,
        "internet_access": null,
        "mobile": null,
        "name": "مستشفى صفوة الجولف",
        "name:ar": "مستشفى صفوة الجولف",
        "name:en": "Safwat Al-Golf Hospital",
        "name_1": null,
        "note": null,
        "opening_hours": null,
        "operator": null,
        "operator:type": null,
        "phone": null,
        "website": null,
        "لحجز الزيارات المنزلية": null
      },
      "type": "Feature"
    },
    {
      "geometry": {
        "coordinates": [
          [
            [
              31.3337671,
              30.0824153
            ],
            [
              31.3336481,
              30.0822317
            ],
            [
              31.3339872,
              30.0820671
            ],
            [
              31.3341062,
              30.0822507
            ],
            [
              31.3337671,
              30.0824153
            ]
          ]
        ],
        "type": "Polygon"
      },
      "id": "('way', 81564563)",
      "properties": {
        "addr:block": null,
        "addr:block:en": null,
        "addr:city": null,
        "addr:country": null,
        "addr:district": null,
        "addr:district:en": null,
        "addr:housenumber": null,
        "addr:neighbourhood": null,
        "addr:neighbourhood:en": null,
        "addr:postcode": null,
        "addr:province": null,
        "addr:province:en": null,
        "addr:street": null,
        "addr:street:en": null,
        "addr:subdistrict": null,
        "addr:subdistrict:en": null,
        "alt_name": null,
        "alt_name:en": null,
        "amenity": "hospital",
        "building": null,
        "data_reality": "REAL_PUBLIC",
        "email": null,
        "emergency": null,
        "facility_type": "hospital",
        "fax": null,
        "fixme": null,
        "freshness_status": "STATIC",
        "healthcare": null,
        "healthcare:speciality": null,
        "internet_access": null,
        "mobile": null,
        "name": "ام النور",
        "name:ar": "ام النور",
        "name:en": "Um Al-Nour",
        "name_1": null,
        "note": null,
        "opening_hours": null,
        "operator": null,
        "operator:type": null,
        "phone": null,
        "website": null,
        "لحجز الزيارات المنزلية": null
      },
      "type": "Feature"
    },
    {
      "geometry": {
        "coordinates": [
          [
            [
              31.3783912,
              30.0492142
            ],
            [
              31.3785038,
              30.0493906
            ],
            [
              31.3783053,
              30.0493721
            ],
            [
              31.3782034,
              30.0491956
            ],
            [
              31.3783912,
              30.0492142
            ]
          ]
        ],
        "type": "Polygon"
      },
      "id": "('way', 397057595)",
      "properties": {
        "addr:block": null,
        "addr:block:en": null,
        "addr:city": null,
        "addr:country": null,
        "addr:district": null,
        "addr:district:en": null,
        "addr:housenumber": "2",
        "addr:neighbourhood": null,
        "addr:neighbourhood:en": null,
        "addr:postcode": null,
        "addr:province": null,
        "addr:province:en": null,
        "addr:street": "احمد الزمر",
        "addr:street:en": null,
        "addr:subdistrict": null,
        "addr:subdistrict:en": null,
        "alt_name": null,
        "alt_name:en": null,
        "amenity": "hospital",
        "building": null,
        "data_reality": "REAL_PUBLIC",
        "email": null,
        "emergency": "yes",
        "facility_type": "hospital",
        "fax": null,
        "fixme": "please use ascii w/o blanks for tags: مواعيد العمل = 11.0 - 8.30 ص",
        "freshness_status": "STATIC",
        "healthcare": null,
        "healthcare:speciality": null,
        "internet_access": null,
        "mobile": null,
        "name": "برج معمل الفا لاب الطبى",
        "name:ar": "برج معمل الفا لاب الطبى",
        "name:en": null,
        "name_1": null,
        "note": null,
        "opening_hours": null,
        "operator": "معمل الفا +اشعة ورنين مغناطيسى +عيادات لنخبة من الاساتذة والاستشاريين",
        "operator:type": null,
        "phone": "012227449556",
        "website": null,
        "لحجز الزيارات المنزلية": "16191"
      },
      "type": "Feature"
    },
    {
      "geometry": {
        "coordinates": [
          [
            [
              31.3242512,
              30.0604232
            ],
            [
              31.3257185,
              30.0605395
            ],
            [
              31.3258593,
              30.0591367
            ],
            [
              31.3254071,
              30.0589984
            ],
            [
              31.3254074,
              30.0590668
            ],
            [
              31.3242779,
              30.0588987
            ],
            [
              31.3240582,
              30.0599378
            ],
            [
              31.3243362,
              30.0599865
            ],
            [
              31.3242512,
              30.0604232
            ]
          ]
        ],
        "type": "Polygon"
      },
      "id": "('way', 620531300)",
      "properties": {
        "addr:block": null,
        "addr:block:en": null,
        "addr:city": null,
        "addr:country": null,
        "addr:district": null,
        "addr:district:en": null,
        "addr:housenumber": null,
        "addr:neighbourhood": null,
        "addr:neighbourhood:en": null,
        "addr:postcode": null,
        "addr:province": null,
        "addr:province:en": null,
        "addr:street": null,
        "addr:street:en": null,
        "addr:subdistrict": null,
        "addr:subdistrict:en": null,
        "alt_name": null,
        "alt_name:en": null,
        "amenity": "hospital",
        "building": null,
        "data_reality": "REAL_PUBLIC",
        "email": null,
        "emergency": "yes",
        "facility_type": "hospital",
        "fax": null,
        "fixme": null,
        "freshness_status": "STATIC",
        "healthcare": "hospital",
        "healthcare:speciality": "general",
        "internet_access": null,
        "mobile": null,
        "name": "مستشفى التأمين الصحى",
        "name:ar": "مستشفى التأمين الصحى",
        "name:en": null,
        "name_1": null,
        "note": null,
        "opening_hours": null,
        "operator": null,
        "operator:type": null,
        "phone": null,
        "website": null,
        "لحجز الزيارات المنزلية": null
      },
      "type": "Feature"
    },
    {
      "geometry": {
        "coordinates": [
          [
            [
              31.3318481,
              30.0640588
            ],
            [
              31.3316422,
              30.0640481
            ],
            [
              31.3316226,
              30.0641944
            ],
            [
              31.331811,
              30.064212
            ],
            [
              31.3318481,
              30.0640588
            ]
          ]
        ],
        "type": "Polygon"
      },
      "id": "('way', 984855104)",
      "properties": {
        "addr:block": null,
        "addr:block:en": null,
        "addr:city": "Cairo",
        "addr:country": "EG",
        "addr:district": "اول مدينة نصر",
        "addr:district:en": "First Nasr City",
        "addr:housenumber": "16",
        "addr:neighbourhood": null,
        "addr:neighbourhood:en": null,
        "addr:postcode": "11765",
        "addr:province": "القاهرة",
        "addr:province:en": "Cairo",
        "addr:street": "شارع تحسين فرغلي",
        "addr:street:en": "Tahseen Farghali Street",
        "addr:subdistrict": "منطقة 1",
        "addr:subdistrict:en": "Area 1",
        "alt_name": null,
        "alt_name:en": null,
        "amenity": "hospital",
        "building": null,
        "data_reality": "REAL_PUBLIC",
        "email": null,
        "emergency": null,
        "facility_type": "hospital",
        "fax": null,
        "fixme": null,
        "freshness_status": "STATIC",
        "healthcare": "hospital",
        "healthcare:speciality": null,
        "internet_access": null,
        "mobile": null,
        "name": "شركة تطبيق حكيمة لخدمات التمريض المنزلي",
        "name:ar": null,
        "name:en": null,
        "name_1": null,
        "note": null,
        "opening_hours": null,
        "operator": "شركة تطبيق حكيمة لخدمات التمريض المنزلي",
        "operator:type": "public",
        "phone": null,
        "website": null,
        "لحجز الزيارات المنزلية": null
      },
      "type": "Feature"
    },
    {
      "geometry": {
        "coordinates": [
          [
            [
              31.3310141,
              30.0557374
            ],
            [
              31.3310277,
              30.0556549
            ],
            [
              31.3310893,
              30.0556625
            ],
            [
              31.3311245,
              30.0554489
            ],
            [
              31.3310538,
              30.0554401
            ],
            [
              31.3310688,
              30.055349
            ],
            [
              31.3312916,
              30.0553765
            ],
            [
              31.331275,
              30.0554776
            ],
            [
              31.3312124,
              30.0554699
            ],
            [
              31.3311799,
              30.0556673
            ],
            [
              31.3312441,
              30.0556752
            ],
            [
              31.3312295,
              30.055764
            ],
            [
              31.3310141,
              30.0557374
            ]
          ]
        ],
        "type": "Polygon"
      },
      "id": "('way', 1127997657)",
      "properties": {
        "addr:block": null,
        "addr:block:en": null,
        "addr:city": null,
        "addr:country": null,
        "addr:district": null,
        "addr:district:en": null,
        "addr:housenumber": null,
        "addr:neighbourhood": null,
        "addr:neighbourhood:en": null,
        "addr:postcode": null,
        "addr:province": null,
        "addr:province:en": null,
        "addr:street": null,
        "addr:street:en": null,
        "addr:subdistrict": null,
        "addr:subdistrict:en": null,
        "alt_name": null,
        "alt_name:en": null,
        "amenity": "hospital",
        "building": null,
        "data_reality": "REAL_PUBLIC",
        "email": null,
        "emergency": null,
        "facility_type": "hospital",
        "fax": null,
        "fixme": null,
        "freshness_status": "STATIC",
        "healthcare": "hospital",
        "healthcare:speciality": null,
        "internet_access": null,
        "mobile": null,
        "name": null,
        "name:ar": null,
        "name:en": null,
        "name_1": null,
        "note": null,
        "opening_hours": null,
        "operator": null,
        "operator:type": null,
        "phone": null,
        "website": null,
        "لحجز الزيارات المنزلية": null
      },
      "type": "Feature"
    },
    {
      "geometry": {
        "coordinates": [
          [
            [
              31.3790789,
              30.0533649
            ],
            [
              31.3793437,
              30.0533419
            ],
            [
              31.3793201,
              30.0531385
            ],
            [
              31.3790554,
              30.0531615
            ],
            [
              31.3790789,
              30.0533649
            ]
          ]
        ],
        "type": "Polygon"
      },
      "id": "('way', 1428551185)",
      "properties": {
        "addr:block": "بلوك 26",
        "addr:block:en": "Block 26",
        "addr:city": null,
        "addr:country": "EG",
        "addr:district": "اول مدينة نصر",
        "addr:district:en": "First Nasr City",
        "addr:housenumber": "26",
        "addr:neighbourhood": null,
        "addr:neighbourhood:en": null,
        "addr:postcode": "11528",
        "addr:province": "القاهرة",
        "addr:province:en": "Cairo",
        "addr:street": "شارع محمد متولي الشعراوي",
        "addr:street:en": "Mohamed Metwali Al Shaarawy Street",
        "addr:subdistrict": "منطقة 10",
        "addr:subdistrict:en": "Area 10",
        "alt_name": null,
        "alt_name:en": null,
        "amenity": "hospital",
        "building": null,
        "data_reality": "REAL_PUBLIC",
        "email": null,
        "emergency": null,
        "facility_type": "hospital",
        "fax": "+202-2357-5161",
        "fixme": null,
        "freshness_status": "STATIC",
        "healthcare": "hospital",
        "healthcare:speciality": null,
        "internet_access": null,
        "mobile": "+20120-4477-059;+20114-1664-095",
        "name": "مستشفي الماسة",
        "name:ar": "مستشفي الماسة",
        "name:en": "Al MASSA hospital",
        "name_1": null,
        "note": null,
        "opening_hours": "24/7",
        "operator": null,
        "operator:type": null,
        "phone": "+202-2357-5162;+202-2357-5163",
        "website": null,
        "لحجز الزيارات المنزلية": null
      },
      "type": "Feature"
    }
  ],
  "type": "FeatureCollection"
}
